start=new Date('2023-01-21T00:00:00.000Z').valueOf();
sats=[{"ELEMENT_SET_NO":"999","FILE":"3755973","REV_AT_EPOCH":"1332","DECAY_DATE":null,"PERIAPSIS":"348.795","BSTAR":"0.00000273910000","MEAN_ANOMALY":"276.7188","GP_ID":"223549231","MEAN_MOTION_DDOT":"0.0000000000000","SITE":"AFWTR","TLE_LINE1":"1 54174U 22141T   23020.40298225 -.00000236  00000-0  27391-5 0  9999","ECCENTRICITY":"0.00014190","MEAN_MOTION":"15.73203750","INCLINATION":"53.2173","CLASSIFICATION_TYPE":"U","ARG_OF_PERICENTER":"83.3994","TIME_SYSTEM":"UTC","MEAN_MOTION_DOT":"-0.00000236","EPOCH":"2023-01-20T09:40:17.666400","RCS_SIZE":"LARGE","LAUNCH_DATE":"2022-10-28","PERIOD":"91.533","COUNTRY_CODE":"US","EPHEMERIS_TYPE":"0","RA_OF_ASC_NODE":"85.6481","SEMIMAJOR_AXIS":"6727.884","OBJECT_ID":"2022-141T","CENTER_NAME":"EARTH","MEAN_ELEMENT_THEORY":"SGP4","REF_FRAME":"TEME","TLE_LINE2":"2 54174  53.2173  85.6481 0001419  83.3994 276.7188 15.73203750 13328","OBJECT_TYPE":"PAYLOAD","NORAD_CAT_ID":"54174","OBJECT_NAME":"STARLINK-5248","APOAPSIS":"350.704"},{"PERIOD":"95.437","LAUNCH_DATE":"2022-10-28","RCS_SIZE":"LARGE","EPHEMERIS_TYPE":"0","COUNTRY_CODE":"US","CENTER_NAME":"EARTH","SEMIMAJOR_AXIS":"6917.855","OBJECT_ID":"2022-141U","RA_OF_ASC_NODE":"100.5960","REF_FRAME":"TEME","MEAN_ELEMENT_THEORY":"SGP4","NORAD_CAT_ID":"54175","TLE_LINE2":"2 54175  53.2160 100.5960 0000777  80.1429 279.9651 15.08848206 13125","OBJECT_TYPE":"PAYLOAD","APOAPSIS":"540.258","OBJECT_NAME":"STARLINK-5256","BSTAR":"0.00025087000000","PERIAPSIS":"539.183","REV_AT_EPOCH":"1312","DECAY_DATE":null,"FILE":"3755973","ELEMENT_SET_NO":"999","GP_ID":"223549478","MEAN_ANOMALY":"279.9651","SITE":"AFWTR","MEAN_MOTION_DDOT":"0.0000000000000","MEAN_MOTION":"15.08848206","ECCENTRICITY":"0.00007770","TLE_LINE1":"1 54175U 22141U   23020.49978922  .00003708  00000-0  25087-3 0  9992","TIME_SYSTEM":"UTC","CLASSIFICATION_TYPE":"U","ARG_OF_PERICENTER":"80.1429","INCLINATION":"53.2160","EPOCH":"2023-01-20T11:59:41.788608","MEAN_MOTION_DOT":"0.00003708"},{"PERIOD":"95.437","RCS_SIZE":"LARGE","LAUNCH_DATE":"2022-10-28","CENTER_NAME":"EARTH","SEMIMAJOR_AXIS":"6917.847","OBJECT_ID":"2022-141V","RA_OF_ASC_NODE":"99.9080","EPHEMERIS_TYPE":"0","COUNTRY_CODE":"US","NORAD_CAT_ID":"54176","TLE_LINE2":"2 54176  53.2185  99.9080 0001425 117.1332 242.9805 15.08851071 13149","OBJECT_TYPE":"PAYLOAD","REF_FRAME":"TEME","MEAN_ELEMENT_THEORY":"SGP4","APOAPSIS":"540.697","OBJECT_NAME":"STARLINK-5154","PERIAPSIS":"538.726","BSTAR":"-0.00005592200000","DECAY_DATE":null,"REV_AT_EPOCH":"1314","FILE":"3756041","ELEMENT_SET_NO":"999","SITE":"AFWTR","MEAN_MOTION_DDOT":"0.0000000000000","GP_ID":"223552232","MEAN_ANOMALY":"242.9805","ECCENTRICITY":"0.00014250","MEAN_MOTION":"15.08851071","TLE_LINE1":"1 54176U 22141V   23020.61752023 -.00001178  00000-0 -55922-4 0  9992","EPOCH":"2023-01-20T14:49:13.747872","MEAN_MOTION_DOT":"-0.00001178","TIME_SYSTEM":"UTC","CLASSIFICATION_TYPE":"U","ARG_OF_PERICENTER":"117.1332","INCLINATION":"53.2185"},{"FILE":"3755973","ELEMENT_SET_NO":"999","BSTAR":"-0.00007890400000","PERIAPSIS":"539.055","DECAY_DATE":null,"REV_AT_EPOCH":"1312","MEAN_MOTION_DDOT":"0.0000000000000","SITE":"AFWTR","GP_ID":"223549970","MEAN_ANOMALY":"244.8930","TLE_LINE1":"1 54177U 22141W   23020.49241408 -.00001544  00000-0 -78904-4 0  9991","MEAN_MOTION":"15.08855030","ECCENTRICITY":"0.00009310","MEAN_MOTION_DOT":"-0.00001544","EPOCH":"2023-01-20T11:49:04.576512","CLASSIFICATION_TYPE":"U","TIME_SYSTEM":"UTC","ARG_OF_PERICENTER":"115.2159","INCLINATION":"53.2162","RCS_SIZE":"LARGE","LAUNCH_DATE":"2022-10-28","PERIOD":"95.437","RA_OF_ASC_NODE":"100.5501","CENTER_NAME":"EARTH","SEMIMAJOR_AXIS":"6917.834","OBJECT_ID":"2022-141W","COUNTRY_CODE":"US","EPHEMERIS_TYPE":"0","NORAD_CAT_ID":"54177","TLE_LINE2":"2 54177  53.2162 100.5501 0000931 115.2159 244.8930 15.08855030 13126","OBJECT_TYPE":"PAYLOAD","REF_FRAME":"TEME","MEAN_ELEMENT_THEORY":"SGP4","APOAPSIS":"540.343","OBJECT_NAME":"STARLINK-5186"},{"EPHEMERIS_TYPE":"0","COUNTRY_CODE":"US","OBJECT_ID":"2022-141X","SEMIMAJOR_AXIS":"6922.827","CENTER_NAME":"EARTH","RA_OF_ASC_NODE":"99.2575","PERIOD":"95.540","LAUNCH_DATE":"2022-10-28","RCS_SIZE":"LARGE","OBJECT_NAME":"STARLINK-5164","APOAPSIS":"545.817","MEAN_ELEMENT_THEORY":"SGP4","REF_FRAME":"TEME","TLE_LINE2":"2 54178  53.2179  99.2575 0001624  97.7666 262.3510 15.07223007 13151","OBJECT_TYPE":"PAYLOAD","NORAD_CAT_ID":"54178","MEAN_ANOMALY":"262.3510","GP_ID":"223552240","SITE":"AFWTR","MEAN_MOTION_DDOT":"0.0000000000000","DECAY_DATE":null,"REV_AT_EPOCH":"1315","BSTAR":"-0.00010589000000","PERIAPSIS":"543.568","ELEMENT_SET_NO":"999","FILE":"3756041","INCLINATION":"53.2179","CLASSIFICATION_TYPE":"U","ARG_OF_PERICENTER":"97.7666","TIME_SYSTEM":"UTC","EPOCH":"2023-01-20T15:05:29.780160","MEAN_MOTION_DOT":"-0.00001896","ECCENTRICITY":"0.00016240","MEAN_MOTION":"15.07223007","TLE_LINE1":"1 54178U 22141X   23020.62881690 -.00001896  00000-0 -10589-3 0  9994"},{"MEAN_ELEMENT_THEORY":"SGP4","REF_FRAME":"TEME","TLE_LINE2":"2 54179  53.2168 100.5259 0001044  95.9607 264.1504 15.08858178 13120","OBJECT_TYPE":"PAYLOAD","NORAD_CAT_ID":"54179","OBJECT_NAME":"STARLINK-5122","APOAPSIS":"540.412","PERIOD":"95.436","LAUNCH_DATE":"2022-10-28","RCS_SIZE":"LARGE","EPHEMERIS_TYPE":"0","COUNTRY_CODE":"US","SEMIMAJOR_AXIS":"6917.825","OBJECT_ID":"2022-141Y","CENTER_NAME":"EARTH","RA_OF_ASC_NODE":"100.5259","MEAN_MOTION":"15.08858178","ECCENTRICITY":"0.00010440","TLE_LINE1":"1 54179U 22141Y   23020.48872975 -.00003098  00000-0 -17655-3 0  9992","INCLINATION":"53.2168","ARG_OF_PERICENTER":"95.9607","CLASSIFICATION_TYPE":"U","TIME_SYSTEM":"UTC","EPOCH":"2023-01-20T11:43:46.250400","MEAN_MOTION_DOT":"-0.00003098","DECAY_DATE":null,"REV_AT_EPOCH":"1312","PERIAPSIS":"538.968","BSTAR":"-0.00017655000000","ELEMENT_SET_NO":"999","FILE":"3755973","MEAN_ANOMALY":"264.1504","GP_ID":"223548984","SITE":"AFWTR","MEAN_MOTION_DDOT":"0.0000000000000"},{"MEAN_ELEMENT_THEORY":"SGP4","REF_FRAME":"TEME","TLE_LINE2":"2 54180  53.2165 100.3925 0000988  79.3586 280.7518 15.08855712 13125","OBJECT_TYPE":"PAYLOAD","NORAD_CAT_ID":"54180","OBJECT_NAME":"STARLINK-5228","APOAPSIS":"540.381","PERIOD":"95.437","RCS_SIZE":"LARGE","LAUNCH_DATE":"2022-10-28","EPHEMERIS_TYPE":"0","COUNTRY_CODE":"US","SEMIMAJOR_AXIS":"6917.832","OBJECT_ID":"2022-141Z","CENTER_NAME":"EARTH","RA_OF_ASC_NODE":"100.3925","ECCENTRICITY":"0.00009880","MEAN_MOTION":"15.08855712","TLE_LINE1":"1 54180U 22141Z   23020.46662614  .00030790  00000-0  19434-2 0  9992","INCLINATION":"53.2165","ARG_OF_PERICENTER":"79.3586","CLASSIFICATION_TYPE":"U","TIME_SYSTEM":"UTC","EPOCH":"2023-01-20T11:11:56.498496","MEAN_MOTION_DOT":"0.00030790","REV_AT_EPOCH":"1312","DECAY_DATE":null,"PERIAPSIS":"539.014","BSTAR":"0.00194340000000","ELEMENT_SET_NO":"999","FILE":"3755973","MEAN_ANOMALY":"280.7518","GP_ID":"223549726","SITE":"AFWTR","MEAN_MOTION_DDOT":"0.0000000000000"},{"MEAN_ANOMALY":"267.9585","GP_ID":"223550463","SITE":"AFWTR","MEAN_MOTION_DDOT":"0.0000000000000","REV_AT_EPOCH":"1312","DECAY_DATE":null,"PERIAPSIS":"539.000","BSTAR":"0.00180260000000","ELEMENT_SET_NO":"999","FILE":"3755973","INCLINATION":"53.2167","ARG_OF_PERICENTER":"92.1523","CLASSIFICATION_TYPE":"U","TIME_SYSTEM":"UTC","EPOCH":"2023-01-20T11:27:51.777504","MEAN_MOTION_DOT":"0.00028529","MEAN_MOTION":"15.08855571","ECCENTRICITY":"0.00010080","TLE_LINE1":"1 54181U 22141AA  23020.47768261  .00028529  00000-0  18026-2 0  9992","EPHEMERIS_TYPE":"0","COUNTRY_CODE":"US","SEMIMAJOR_AXIS":"6917.833","OBJECT_ID":"2022-141AA","CENTER_NAME":"EARTH","RA_OF_ASC_NODE":"100.4624","PERIOD":"95.437","LAUNCH_DATE":"2022-10-28","RCS_SIZE":"LARGE","OBJECT_NAME":"STARLINK-5227","APOAPSIS":"540.395","MEAN_ELEMENT_THEORY":"SGP4","REF_FRAME":"TEME","TLE_LINE2":"2 54181  53.2167 100.4624 0001008  92.1523 267.9585 15.08855571 13127","OBJECT_TYPE":"PAYLOAD","NORAD_CAT_ID":"54181"},{"TLE_LINE1":"1 54182U 22141AB  23020.43917382  .00057236  00000-0  50013-3 0  9999","ECCENTRICITY":"0.00054950","MEAN_MOTION":"15.68391673","TIME_SYSTEM":"UTC","CLASSIFICATION_TYPE":"U","ARG_OF_PERICENTER":"32.9251","INCLINATION":"53.2147","MEAN_MOTION_DOT":"0.00057236","EPOCH":"2023-01-20T10:32:24.618048","FILE":"3755973","ELEMENT_SET_NO":"999","BSTAR":"0.00050013000000","PERIAPSIS":"359.799","DECAY_DATE":null,"REV_AT_EPOCH":"1330","GP_ID":"223549232","MEAN_ANOMALY":"327.2108","MEAN_MOTION_DDOT":"0.0000000000000","SITE":"AFWTR","REF_FRAME":"TEME","MEAN_ELEMENT_THEORY":"SGP4","NORAD_CAT_ID":"54182","TLE_LINE2":"2 54182  53.2147  87.3479 0005495  32.9251 327.2108 15.68391673 13306","OBJECT_TYPE":"PAYLOAD","APOAPSIS":"367.208","OBJECT_NAME":"STARLINK-5231","LAUNCH_DATE":"2022-10-28","RCS_SIZE":"LARGE","PERIOD":"91.814","COUNTRY_CODE":"US","EPHEMERIS_TYPE":"0","RA_OF_ASC_NODE":"87.3479","CENTER_NAME":"EARTH","SEMIMAJOR_AXIS":"6741.639","OBJECT_ID":"2022-141AB"},{"SEMIMAJOR_AXIS":"6917.768","OBJECT_ID":"2022-141AC","CENTER_NAME":"EARTH","RA_OF_ASC_NODE":"99.8195","EPHEMERIS_TYPE":"0","COUNTRY_CODE":"US","PERIOD":"95.435","LAUNCH_DATE":"2022-10-28","RCS_SIZE":"LARGE","OBJECT_NAME":"STARLINK-5239","APOAPSIS":"540.385","TLE_LINE2":"2 54183  53.2163  99.8195 0001088  77.9288 282.1826 15.08876876 13371","OBJECT_TYPE":"PAYLOAD","NORAD_CAT_ID":"54183","MEAN_ELEMENT_THEORY":"SGP4","REF_FRAME":"TEME","SITE":"AFWTR","MEAN_MOTION_DDOT":"0.0000000000000","MEAN_ANOMALY":"282.1826","GP_ID":"223551754","REV_AT_EPOCH":"1337","DECAY_DATE":null,"PERIAPSIS":"538.880","BSTAR":"0.00007718700000","ELEMENT_SET_NO":"999","FILE":"3756061","EPOCH":"2023-01-20T14:27:59.754816","MEAN_MOTION_DOT":"0.00000942","INCLINATION":"53.2163","ARG_OF_PERICENTER":"77.9288","CLASSIFICATION_TYPE":"U","TIME_SYSTEM":"UTC","ECCENTRICITY":"0.00010880","MEAN_MOTION":"15.08876876","TLE_LINE1":"1 54183U 22141AC  23020.60277494  .00000942  00000-0  77187-4 0  9996"}];
